{"type":"FeatureCollection","features":[{"type":"Feature","geometry":{"type":"Point","coordinates":[-3.5619617,40.4238571]},"properties":{"id":1996921750,"name":"Coslada Central","operator":"Metro de Madrid"}},{"type":"Feature","geometry":{"type":"Point","coordinates":[-3.8319872,40.3499384]},"properties":{"id":2112127610,"name":"Alcorcón Central","operator":"Metro de Madrid","network":"Metro de Madrid"}},{"type":"Feature","geometry":{"type":"Point","coordinates":[-3.849049,40.3458164]},"properties":{"id":4912161023,"name":"Parque Oeste","operator":"Metro de Madrid","network":"Metro de Madrid"}},{"type":"Feature","geometry":{"type":"Point","coordinates":[-3.6916991,40.4458416]},"properties":{"id":4998670036,"name":"Nuevos Ministerios","operator":"Metro de Madrid","network":"Metro de Madrid"}},{"type":"Feature","geometry":{"type":"Point","coordinates":[-3.6982259,40.4608552]},"properties":{"id":5299261414,"name":"Tetuán","operator":"Metro de Madrid","network":"Metro de Madrid"}},{"type":"Feature","geometry":{"type":"Point","coordinates":[-3.6896636,40.4662822]},"properties":{"id":5299262123,"name":"Plaza de Castilla","operator":"Metro de Madrid","network":"Metro de Madrid"}},{"type":"Feature","geometry":{"type":"Point","coordinates":[-3.6827087,40.4739539]},"properties":{"id":5299262124,"name":"Chamartín","operator":"Metro de Madrid","network":"Metro de Madrid"}},{"type":"Feature","geometry":{"type":"Point","coordinates":[-3.676614,40.4769812]},"properties":{"id":5299262125,"name":"Bambú","operator":"Metro de Madrid","network":"Metro de Madrid"}},{"type":"Feature","geometry":{"type":"Point","coordinates":[-3.6670518,40.4800504]},"properties":{"id":5299262126,"name":"Pinar de Chamartín","operator":"Metro de Madrid","network":"Metro de Madrid"}},{"type":"Feature","geometry":{"type":"Point","coordinates":[-3.5921171,40.3599901]},"properties":{"id":5299314561,"name":"Valdecarros","operator":"Metro de Madrid","network":"Metro de Madrid"}},{"type":"Feature","geometry":{"type":"Point","coordinates":[-3.5991634,40.3635039]},"properties":{"id":5299314562,"name":"Las Suertes","operator":"Metro de Madrid","network":"Metro de Madrid"}},{"type":"Feature","geometry":{"type":"Point","coordinates":[-3.6187268,40.3721977]},"properties":{"id":5299314564,"name":"Congosto","operator":"Metro de Madrid","network":"Metro de Madrid"}},{"type":"Feature","geometry":{"type":"Point","coordinates":[-3.6213251,40.3794304]},"properties":{"id":5299314565,"name":"Villa de Vallecas","operator":"Metro de Madrid","network":"Metro de Madrid"}},{"type":"Feature","geometry":{"type":"Point","coordinates":[-3.6249212,40.3825816]},"properties":{"id":5299314566,"name":"Sierra de Guadalupe","operator":"Metro de Madrid","network":"Metro de Madrid"}},{"type":"Feature","geometry":{"type":"Point","coordinates":[-3.6400068,40.387548]},"properties":{"id":5299314567,"name":"Miguel Hernández","operator":"Metro de Madrid","network":"Metro de Madrid"}},{"type":"Feature","geometry":{"type":"Point","coordinates":[-3.6458127,40.3900497]},"properties":{"id":5299314568,"name":"Alto del Arenal","operator":"Metro de Madrid","network":"Metro de Madrid"}},{"type":"Feature","geometry":{"type":"Point","coordinates":[-3.653876,40.3916235]},"properties":{"id":5299314569,"name":"Buenos Aires","operator":"Metro de Madrid","network":"Metro de Madrid"}},{"type":"Feature","geometry":{"type":"Point","coordinates":[-3.659194,40.3930132]},"properties":{"id":5299314570,"name":"Portazgo","operator":"Metro de Madrid","network":"Metro de Madrid"}},{"type":"Feature","geometry":{"type":"Point","coordinates":[-3.6647621,40.395963]},"properties":{"id":5299314571,"name":"Nueva Numancia","operator":"Metro de Madrid","network":"Metro de Madrid"}},{"type":"Feature","geometry":{"type":"Point","coordinates":[-3.6689662,40.3980926]},"properties":{"id":5299314572,"name":"Puente de Vallecas","operator":"Metro de Madrid","network":"Metro de Madrid"}},{"type":"Feature","geometry":{"type":"Point","coordinates":[-3.6886008,40.4069749]},"properties":{"id":5299314576,"name":"Atocha","operator":"Metro de Madrid","network":"Metro de Madrid"}},{"type":"Feature","geometry":{"type":"Point","coordinates":[-3.6914748,40.4088389]},"properties":{"id":5299314577,"name":"Estación del Arte","operator":"Metro de Madrid","network":"Metro de Madrid"}},{"type":"Feature","geometry":{"type":"Point","coordinates":[-3.699089,40.412291]},"properties":{"id":5299314578,"name":"Antón Martín","operator":"Metro de Madrid","network":"Metro de Madrid"}},{"type":"Feature","geometry":{"type":"Point","coordinates":[-3.7045846,40.4123608]},"properties":{"id":5299314579,"name":"Tirso de Molina","operator":"Metro de Madrid","network":"Metro de Madrid"}},{"type":"Feature","geometry":{"type":"Point","coordinates":[-3.7016189,40.4199123]},"properties":{"id":5299314581,"name":"Gran Vía","operator":"Metro de Madrid","network":"Metro de Madrid"}},{"type":"Feature","geometry":{"type":"Point","coordinates":[-3.7010942,40.4262415]},"properties":{"id":5299314583,"name":"Tribunal","operator":"Metro de Madrid","network":"Metro de Madrid"}},{"type":"Feature","geometry":{"type":"Point","coordinates":[-3.6990132,40.4352634]},"properties":{"id":5299314587,"name":"Iglesia","operator":"Metro de Madrid","network":"Metro de Madrid"}},{"type":"Feature","geometry":{"type":"Point","coordinates":[-3.7015924,40.4415935]},"properties":{"id":5299314588,"name":"Ríos Rosas","operator":"Metro de Madrid","network":"Metro de Madrid"}},{"type":"Feature","geometry":{"type":"Point","coordinates":[-3.7035098,40.4500867]},"properties":{"id":5299314590,"name":"Alvarado","operator":"Metro de Madrid","network":"Metro de Madrid"}},{"type":"Feature","geometry":{"type":"Point","coordinates":[-3.7033901,40.416938]},"properties":{"id":5301853067,"name":"Sol","operator":"Metro de Madrid","network":"Metro de Madrid"}},{"type":"Feature","geometry":{"type":"Point","coordinates":[-3.694999,40.4645262]},"properties":{"id":5301853068,"name":"Valdeacederas","operator":"Metro de Madrid","network":"Metro de Madrid"}},{"type":"Feature","geometry":{"type":"Point","coordinates":[-3.7027568,40.4545136]},"properties":{"id":5301853069,"name":"Estrecho","operator":"Metro de Madrid","network":"Metro de Madrid"}},{"type":"Feature","geometry":{"type":"Point","coordinates":[-3.6769611,40.4571156]},"properties":{"id":5302030275,"name":"Colombia","operator":"Metro de Madrid","network":"Metro de Madrid"}},{"type":"Feature","geometry":{"type":"Point","coordinates":[-3.6486781,40.4678284]},"properties":{"id":5302030277,"name":"Pinar del Rey","operator":"Metro de Madrid","network":"Metro de Madrid"}},{"type":"Feature","geometry":{"type":"Point","coordinates":[-3.6385808,40.4698205]},"properties":{"id":5302030279,"name":"Mar de Cristal","operator":"Metro de Madrid","network":"Metro de Madrid"}},{"type":"Feature","geometry":{"type":"Point","coordinates":[-3.6163088,40.464]},"properties":{"id":5302030283,"name":"Feria de Madrid","operator":"Metro de Madrid","network":"Metro de Madrid"}},{"type":"Feature","geometry":{"type":"Point","coordinates":[-3.5717593,40.4679143]},"properties":{"id":5302030284,"name":"Aeropuerto T1-T2-T3","operator":"Metro de Madrid","network":"Metro de Madrid"}},{"type":"Feature","geometry":{"type":"Point","coordinates":[-3.5826207,40.4758121]},"properties":{"id":5302030285,"name":"Barajas","operator":"Metro de Madrid","network":"Metro de Madrid"}},{"type":"Feature","geometry":{"type":"Point","coordinates":[-3.5928387,40.4924348]},"properties":{"id":5302030286,"name":"Aeropuerto T4","operator":"Metro de Madrid","network":"Metro de Madrid"}},{"type":"Feature","geometry":{"type":"Point","coordinates":[-3.662679,40.4766992]},"properties":{"id":5302296020,"name":"Manoteras","operator":"Metro de Madrid","network":"Metro de Madrid"}},{"type":"Feature","geometry":{"type":"Point","coordinates":[-3.652125,40.4747276]},"properties":{"id":5302296721,"name":"Hortaleza","operator":"Metro de Madrid","network":"Metro de Madrid"}},{"type":"Feature","geometry":{"type":"Point","coordinates":[-3.6456986,40.4771257]},"properties":{"id":5302296722,"name":"Parque de Santa María","operator":"Metro de Madrid","network":"Metro de Madrid"}},{"type":"Feature","geometry":{"type":"Point","coordinates":[-3.6396107,40.4745618]},"properties":{"id":5302296724,"name":"San Lorenzo","operator":"Metro de Madrid","network":"Metro de Madrid"}},{"type":"Feature","geometry":{"type":"Point","coordinates":[-3.6354426,40.4637721]},"properties":{"id":5302296726,"name":"Canillas","operator":"Metro de Madrid","network":"Metro de Madrid"}},{"type":"Feature","geometry":{"type":"Point","coordinates":[-3.6455644,40.4592436]},"properties":{"id":5302296727,"name":"Esperanza","operator":"Metro de Madrid","network":"Metro de Madrid"}},{"type":"Feature","geometry":{"type":"Point","coordinates":[-3.6561772,40.455936]},"properties":{"id":5302296728,"name":"Arturo Soria","operator":"Metro de Madrid","network":"Metro de Madrid"}},{"type":"Feature","geometry":{"type":"Point","coordinates":[-3.6621876,40.4532165]},"properties":{"id":5302296729,"name":"Avenida de la Paz","operator":"Metro de Madrid","network":"Metro de Madrid"}},{"type":"Feature","geometry":{"type":"Point","coordinates":[-3.6678923,40.4482221]},"properties":{"id":5302296730,"name":"Alfonso XIII","operator":"Metro de Madrid","network":"Metro de Madrid"}},{"type":"Feature","geometry":{"type":"Point","coordinates":[-3.6748514,40.4442092]},"properties":{"id":5302296731,"name":"Prosperidad","operator":"Metro de Madrid","network":"Metro de Madrid"}},{"type":"Feature","geometry":{"type":"Point","coordinates":[-3.6747205,40.434474]},"properties":{"id":5302296732,"name":"Diego de León","operator":"Metro de Madrid","network":"Metro de Madrid"}},{"type":"Feature","geometry":{"type":"Point","coordinates":[-3.6753988,40.4293973]},"properties":{"id":5302296733,"name":"Lista","operator":"Metro de Madrid","network":"Metro de Madrid"}},{"type":"Feature","geometry":{"type":"Point","coordinates":[-3.6762001,40.4246991]},"properties":{"id":5302296734,"name":"Goya","operator":"Metro de Madrid","network":"Metro de Madrid"}},{"type":"Feature","geometry":{"type":"Point","coordinates":[-3.682539,40.4251769]},"properties":{"id":5302296735,"name":"Velázquez","operator":"Metro de Madrid","network":"Metro de Madrid"}},{"type":"Feature","geometry":{"type":"Point","coordinates":[-3.6869007,40.4253869]},"properties":{"id":5302296736,"name":"Serrano","operator":"Metro de Madrid","network":"Metro de Madrid"}},{"type":"Feature","geometry":{"type":"Point","coordinates":[-3.6920413,40.4258007]},"properties":{"id":5302296737,"name":"Colón","operator":"Metro de Madrid","network":"Metro de Madrid"}},{"type":"Feature","geometry":{"type":"Point","coordinates":[-3.695983,40.4274063]},"properties":{"id":5302296738,"name":"Alonso Martínez","operator":"Metro de Madrid","network":"Metro de Madrid"}},{"type":"Feature","geometry":{"type":"Point","coordinates":[-3.705761,40.4297715]},"properties":{"id":5302296740,"name":"San Bernardo","operator":"Metro de Madrid","network":"Metro de Madrid"}},{"type":"Feature","geometry":{"type":"Point","coordinates":[-3.7161715,40.4307266]},"properties":{"id":5302296743,"name":"Argüelles","operator":"Metro de Madrid","network":"Metro de Madrid"}},{"type":"Feature","geometry":{"type":"Point","coordinates":[-3.6772962,40.4376477]},"properties":{"id":5302313738,"name":"Avenida de América","operator":"Metro de Madrid","network":"Metro de Madrid"}},{"type":"Feature","geometry":{"type":"Point","coordinates":[-3.7609309,40.4034858]},"properties":{"id":5303127327,"name":"Casa de Campo","operator":"Metro de Madrid","network":"Metro de Madrid"}},{"type":"Feature","geometry":{"type":"Point","coordinates":[-3.7682788,40.3946832]},"properties":{"id":5303127329,"name":"Campamento","operator":"Metro de Madrid","network":"Metro de Madrid"}},{"type":"Feature","geometry":{"type":"Point","coordinates":[-3.765486,40.3907261]},"properties":{"id":5303127330,"name":"Empalme","operator":"Metro de Madrid","network":"Metro de Madrid"}},{"type":"Feature","geometry":{"type":"Point","coordinates":[-3.7510629,40.3844157]},"properties":{"id":5303127337,"name":"Eugenia de Montijo","operator":"Metro de Madrid","network":"Metro de Madrid"}},{"type":"Feature","geometry":{"type":"Point","coordinates":[-3.7449835,40.3878172]},"properties":{"id":5303127338,"name":"Carabanchel","operator":"Metro de Madrid","network":"Metro de Madrid"}},{"type":"Feature","geometry":{"type":"Point","coordinates":[-3.7400441,40.3887883]},"properties":{"id":5303127339,"name":"Vista Alegre","operator":"Metro de Madrid","network":"Metro de Madrid"}},{"type":"Feature","geometry":{"type":"Point","coordinates":[-3.7317242,40.3886401]},"properties":{"id":5303127340,"name":"Oporto","operator":"Metro de Madrid","network":"Metro de Madrid"}},{"type":"Feature","geometry":{"type":"Point","coordinates":[-3.7253613,40.3925341]},"properties":{"id":5303127342,"name":"Urgel","operator":"Metro de Madrid","network":"Metro de Madrid"}},{"type":"Feature","geometry":{"type":"Point","coordinates":[-3.7164041,40.3974458]},"properties":{"id":5303127343,"name":"Marqués de Vadillo","operator":"Metro de Madrid","network":"Metro de Madrid"}},{"type":"Feature","geometry":{"type":"Point","coordinates":[-3.7119409,40.4020429]},"properties":{"id":5303127344,"name":"Pirámides","operator":"Metro de Madrid","network":"Metro de Madrid"}},{"type":"Feature","geometry":{"type":"Point","coordinates":[-3.7059572,40.4040749]},"properties":{"id":5303127346,"name":"Acacias","operator":"Metro de Madrid","network":"Metro de Madrid"}},{"type":"Feature","geometry":{"type":"Point","coordinates":[-3.7110664,40.4070507]},"properties":{"id":5303127347,"name":"Puerta de Toledo","operator":"Metro de Madrid","network":"Metro de Madrid"}},{"type":"Feature","geometry":{"type":"Point","coordinates":[-3.7083094,40.4112911]},"properties":{"id":5303127348,"name":"La Latina","operator":"Metro de Madrid","network":"Metro de Madrid"}},{"type":"Feature","geometry":{"type":"Point","coordinates":[-3.7094148,40.4179827]},"properties":{"id":5303127351,"name":"Ópera","operator":"Metro de Madrid","network":"Metro de Madrid"}},{"type":"Feature","geometry":{"type":"Point","coordinates":[-3.7059121,40.4202937]},"properties":{"id":5303127352,"name":"Callao","operator":"Metro de Madrid","network":"Metro de Madrid"}},{"type":"Feature","geometry":{"type":"Point","coordinates":[-3.6976743,40.4226703]},"properties":{"id":5303127354,"name":"Chueca","operator":"Metro de Madrid","network":"Metro de Madrid"}},{"type":"Feature","geometry":{"type":"Point","coordinates":[-3.6896897,40.4330422]},"properties":{"id":5303127356,"name":"Rubén Darío","operator":"Metro de Madrid","network":"Metro de Madrid"}},{"type":"Feature","geometry":{"type":"Point","coordinates":[-3.6795551,40.4326416]},"properties":{"id":5303127357,"name":"Núñez de Balboa","operator":"Metro de Madrid","network":"Metro de Madrid"}},{"type":"Feature","geometry":{"type":"Point","coordinates":[-3.6635419,40.4310642]},"properties":{"id":5303127359,"name":"Ventas","operator":"Metro de Madrid","network":"Metro de Madrid"}},{"type":"Feature","geometry":{"type":"Point","coordinates":[-3.6561907,40.4319699]},"properties":{"id":5303127361,"name":"El Carmen","operator":"Metro de Madrid","network":"Metro de Madrid"}},{"type":"Feature","geometry":{"type":"Point","coordinates":[-3.6481458,40.4331142]},"properties":{"id":5303127362,"name":"Quintana","operator":"Metro de Madrid","network":"Metro de Madrid"}},{"type":"Feature","geometry":{"type":"Point","coordinates":[-3.644171,40.4350329]},"properties":{"id":5303127363,"name":"Pueblo Nuevo","operator":"Metro de Madrid","network":"Metro de Madrid"}},{"type":"Feature","geometry":{"type":"Point","coordinates":[-3.6377404,40.4379315]},"properties":{"id":5303127365,"name":"Ciudad Lineal","operator":"Metro de Madrid","network":"Metro de Madrid"}},{"type":"Feature","geometry":{"type":"Point","coordinates":[-3.6270164,40.4408788]},"properties":{"id":5303127366,"name":"Suanzes","operator":"Metro de Madrid","network":"Metro de Madrid"}},{"type":"Feature","geometry":{"type":"Point","coordinates":[-3.6171219,40.443618]},"properties":{"id":5303127367,"name":"Torre Arias","operator":"Metro de Madrid","network":"Metro de Madrid"}},{"type":"Feature","geometry":{"type":"Point","coordinates":[-3.6085862,40.4491131]},"properties":{"id":5303127368,"name":"Canillejas","operator":"Metro de Madrid","network":"Metro de Madrid"}},{"type":"Feature","geometry":{"type":"Point","coordinates":[-3.5941978,40.4533798]},"properties":{"id":5303127371,"name":"El Capricho","operator":"Metro de Madrid","network":"Metro de Madrid"}},{"type":"Feature","geometry":{"type":"Point","coordinates":[-3.5879745,40.4575814]},"properties":{"id":5303127372,"name":"Alameda de Osuna","operator":"Metro de Madrid","network":"Metro de Madrid"}},{"type":"Feature","geometry":{"type":"Point","coordinates":[-3.719236,40.4350196]},"properties":{"id":5303173537,"name":"Moncloa","operator":"Metro de Madrid","network":"Metro de Madrid"}},{"type":"Feature","geometry":{"type":"Point","coordinates":[-3.713295,40.4267606]},"properties":{"id":5303173540,"name":"Ventura Rodríguez","operator":"Metro de Madrid","network":"Metro de Madrid"}},{"type":"Feature","geometry":{"type":"Point","coordinates":[-3.7108809,40.423449]},"properties":{"id":5303173541,"name":"Plaza de España","operator":"Metro de Madrid","network":"Metro de Madrid"}},{"type":"Feature","geometry":{"type":"Point","coordinates":[-3.7006613,40.4084539]},"properties":{"id":5303173543,"name":"Lavapiés","operator":"Metro de Madrid","network":"Metro de Madrid"}},{"type":"Feature","geometry":{"type":"Point","coordinates":[-3.7022732,40.4048124]},"properties":{"id":5303173544,"name":"Embajadores","operator":"Metro de Madrid","network":"Metro de Madrid"}},{"type":"Feature","geometry":{"type":"Point","coordinates":[-3.6947843,40.4030849]},"properties":{"id":5303173545,"name":"Palos de la Frontera","operator":"Metro de Madrid","network":"Metro de Madrid"}},{"type":"Feature","geometry":{"type":"Point","coordinates":[-3.6941225,40.3993312]},"properties":{"id":5303173546,"name":"Delicias","operator":"Metro de Madrid","network":"Metro de Madrid"}},{"type":"Feature","geometry":{"type":"Point","coordinates":[-3.6949558,40.3914432]},"properties":{"id":5303173547,"name":"Legazpi","operator":"Metro de Madrid","network":"Metro de Madrid"}},{"type":"Feature","geometry":{"type":"Point","coordinates":[-3.6980105,40.3839505]},"properties":{"id":5303173549,"name":"Almendrales","operator":"Metro de Madrid","network":"Metro de Madrid"}},{"type":"Feature","geometry":{"type":"Point","coordinates":[-3.6959057,40.37546]},"properties":{"id":5303173550,"name":"Hospital 12 de Octubre","operator":"Metro de Madrid","network":"Metro de Madrid"}},{"type":"Feature","geometry":{"type":"Point","coordinates":[-3.6943864,40.369987]},"properties":{"id":5303173551,"name":"San Fermín-Orcasur","operator":"Metro de Madrid","network":"Metro de Madrid"}},{"type":"Feature","geometry":{"type":"Point","coordinates":[-3.69343,40.3601741]},"properties":{"id":5303173552,"name":"Ciudad de los Ángeles","operator":"Metro de Madrid","network":"Metro de Madrid"}},{"type":"Feature","geometry":{"type":"Point","coordinates":[-3.6926258,40.351034]},"properties":{"id":5303173553,"name":"Villaverde Bajo - Cruce","operator":"Metro de Madrid","network":"Metro de Madrid"}},{"type":"Feature","geometry":{"type":"Point","coordinates":[-3.6934141,40.3416121]},"properties":{"id":5303173554,"name":"San Cristóbal","operator":"Metro de Madrid","network":"Metro de Madrid"}},{"type":"Feature","geometry":{"type":"Point","coordinates":[-3.7039643,40.4467812]},"properties":{"id":5303271991,"name":"Cuatro Caminos","operator":"Metro de Madrid","network":"Metro de Madrid"}},{"type":"Feature","geometry":{"type":"Point","coordinates":[-3.704264,40.4386349]},"properties":{"id":5303271993,"name":"Canal","operator":"Metro de Madrid","network":"Metro de Madrid"}},{"type":"Feature","geometry":{"type":"Point","coordinates":[-3.7044934,40.4331809]},"properties":{"id":5303271995,"name":"Quevedo","operator":"Metro de Madrid","network":"Metro de Madrid"}},{"type":"Feature","geometry":{"type":"Point","coordinates":[-3.7073851,40.4247733]},"properties":{"id":5303271996,"name":"Noviciado","operator":"Metro de Madrid","network":"Metro de Madrid"}},{"type":"Feature","geometry":{"type":"Point","coordinates":[-3.7085723,40.4204264]},"properties":{"id":5303271997,"name":"Santo Domingo","operator":"Metro de Madrid","network":"Metro de Madrid"}},{"type":"Feature","geometry":{"type":"Point","coordinates":[-3.6999453,40.4177659]},"properties":{"id":5303271998,"name":"Sevilla","operator":"Metro de Madrid","network":"Metro de Madrid"}},{"type":"Feature","geometry":{"type":"Point","coordinates":[-3.6949256,40.4190548]},"properties":{"id":5303271999,"name":"Banco de España","operator":"Metro de Madrid","network":"Metro de Madrid"}},{"type":"Feature","geometry":{"type":"Point","coordinates":[-3.6864269,40.4204626]},"properties":{"id":5303272000,"name":"Retiro","operator":"Metro de Madrid","network":"Metro de Madrid"}},{"type":"Feature","geometry":{"type":"Point","coordinates":[-3.6803686,40.4226491]},"properties":{"id":5303272001,"name":"Príncipe de Vergara","operator":"Metro de Madrid","network":"Metro de Madrid"}},{"type":"Feature","geometry":{"type":"Point","coordinates":[-3.6687107,40.4281432]},"properties":{"id":5303272003,"name":"Manuel Becerra","operator":"Metro de Madrid","network":"Metro de Madrid"}},{"type":"Feature","geometry":{"type":"Point","coordinates":[-3.6382552,40.4231715]},"properties":{"id":5303272005,"name":"La Almudena","operator":"Metro de Madrid","network":"Metro de Madrid"}},{"type":"Feature","geometry":{"type":"Point","coordinates":[-3.6237899,40.4182411]},"properties":{"id":5303272006,"name":"Alsacia","operator":"Metro de Madrid","network":"Metro de Madrid"}},{"type":"Feature","geometry":{"type":"Point","coordinates":[-3.6122237,40.422449]},"properties":{"id":5303272007,"name":"Avenida de Guadalajara","operator":"Metro de Madrid","network":"Metro de Madrid"}},{"type":"Feature","geometry":{"type":"Point","coordinates":[-3.6494651,40.4269992]},"properties":{"id":5303272059,"name":"La Elipa","operator":"Metro de Madrid","network":"Metro de Madrid"}},{"type":"Feature","geometry":{"type":"Point","coordinates":[-3.5345145,40.417612]},"properties":{"id":5304689519,"name":"Hospital del Henares","operator":"Metro de Madrid"}},{"type":"Feature","geometry":{"type":"Point","coordinates":[-3.5270942,40.4177888]},"properties":{"id":5304689520,"name":"Henares","operator":"Metro de Madrid"}},{"type":"Feature","geometry":{"type":"Point","coordinates":[-3.5253633,40.4233732]},"properties":{"id":5304690721,"name":"Jarama","operator":"Metro de Madrid"}},{"type":"Feature","geometry":{"type":"Point","coordinates":[-3.5359662,40.4244898]},"properties":{"id":5304690722,"name":"San Fernando","operator":"Metro de Madrid"}},{"type":"Feature","geometry":{"type":"Point","coordinates":[-3.5479154,40.4251447]},"properties":{"id":5304690723,"name":"La Rambla","operator":"Metro de Madrid"}},{"type":"Feature","geometry":{"type":"Point","coordinates":[-3.5691052,40.4224714]},"properties":{"id":5304690725,"name":"Barrio del Puerto","operator":"Metro de Madrid"}},{"type":"Feature","geometry":{"type":"Point","coordinates":[-3.600962,40.4337998]},"properties":{"id":5304690726,"name":"Estadio Metropolitano","operator":"Metro de Madrid","network":"Metro de Madrid"}},{"type":"Feature","geometry":{"type":"Point","coordinates":[-3.6078503,40.4325722]},"properties":{"id":5304690727,"name":"Las Musas","operator":"Metro de Madrid","network":"Metro de Madrid"}},{"type":"Feature","geometry":{"type":"Point","coordinates":[-3.615954,40.4275001]},"properties":{"id":5304690728,"name":"San Blas","operator":"Metro de Madrid","network":"Metro de Madrid"}},{"type":"Feature","geometry":{"type":"Point","coordinates":[-3.6229906,40.4275549]},"properties":{"id":5304690729,"name":"Simancas","operator":"Metro de Madrid","network":"Metro de Madrid"}},{"type":"Feature","geometry":{"type":"Point","coordinates":[-3.6328626,40.4286476]},"properties":{"id":5304690730,"name":"García Noblejas","operator":"Metro de Madrid","network":"Metro de Madrid"}},{"type":"Feature","geometry":{"type":"Point","coordinates":[-3.6404493,40.4303119]},"properties":{"id":5304690731,"name":"Ascao","operator":"Metro de Madrid","network":"Metro de Madrid"}},{"type":"Feature","geometry":{"type":"Point","coordinates":[-3.6520984,40.4393659]},"properties":{"id":5304690732,"name":"Barrio de la Concepción","operator":"Metro de Madrid","network":"Metro de Madrid"}},{"type":"Feature","geometry":{"type":"Point","coordinates":[-3.6629009,40.4393064]},"properties":{"id":5304690733,"name":"Parque de las Avenidas","operator":"Metro de Madrid","network":"Metro de Madrid"}},{"type":"Feature","geometry":{"type":"Point","coordinates":[-3.6717961,40.4393935]},"properties":{"id":5304690734,"name":"Cartagena","operator":"Metro de Madrid","network":"Metro de Madrid"}},{"type":"Feature","geometry":{"type":"Point","coordinates":[-3.6912127,40.4379941]},"properties":{"id":5304690736,"name":"Gregorio Marañón","operator":"Metro de Madrid","network":"Metro de Madrid"}},{"type":"Feature","geometry":{"type":"Point","coordinates":[-3.6992576,40.4384455]},"properties":{"id":5304690738,"name":"Alonso Cano","operator":"Metro de Madrid","network":"Metro de Madrid"}},{"type":"Feature","geometry":{"type":"Point","coordinates":[-3.7139784,40.4390433]},"properties":{"id":5304690739,"name":"Islas Filipinas","operator":"Metro de Madrid","network":"Metro de Madrid"}},{"type":"Feature","geometry":{"type":"Point","coordinates":[-3.7131693,40.4462739]},"properties":{"id":5304690740,"name":"Guzmán el Bueno","operator":"Metro de Madrid","network":"Metro de Madrid"}},{"type":"Feature","geometry":{"type":"Point","coordinates":[-3.7121114,40.4566118]},"properties":{"id":5304690742,"name":"Francos Rodríguez","operator":"Metro de Madrid","network":"Metro de Madrid"}},{"type":"Feature","geometry":{"type":"Point","coordinates":[-3.7165189,40.4649188]},"properties":{"id":5304690743,"name":"Valdezarza","operator":"Metro de Madrid","network":"Metro de Madrid"}},{"type":"Feature","geometry":{"type":"Point","coordinates":[-3.7178808,40.4701887]},"properties":{"id":5304690744,"name":"Antonio Machado","operator":"Metro de Madrid","network":"Metro de Madrid"}},{"type":"Feature","geometry":{"type":"Point","coordinates":[-3.7160518,40.4759519]},"properties":{"id":5304690745,"name":"Peñagrande","operator":"Metro de Madrid","network":"Metro de Madrid"}},{"type":"Feature","geometry":{"type":"Point","coordinates":[-3.7183058,40.4800446]},"properties":{"id":5304690746,"name":"Avenida de la Ilustración","operator":"Metro de Madrid","network":"Metro de Madrid"}},{"type":"Feature","geometry":{"type":"Point","coordinates":[-3.7231023,40.4851113]},"properties":{"id":5304690747,"name":"Lacoma","operator":"Metro de Madrid","network":"Metro de Madrid"}},{"type":"Feature","geometry":{"type":"Point","coordinates":[-3.7193334,40.4209619]},"properties":{"id":5304749212,"name":"Príncipe Pío","operator":"Metro de Madrid","network":"Metro de Madrid"}},{"type":"Feature","geometry":{"type":"Point","coordinates":[-3.7117691,40.3410325]},"properties":{"id":5305025415,"name":"Villaverde Alto","operator":"Metro de Madrid","network":"Metro de Madrid"}},{"type":"Feature","geometry":{"type":"Point","coordinates":[-3.8207793,40.3494977]},"properties":{"id":5305116629,"name":"Parque Lisboa","operator":"Metro de Madrid"}},{"type":"Feature","geometry":{"type":"Point","coordinates":[-3.8120209,40.3452072]},"properties":{"id":5305116632,"name":"Puerta del Sur","operator":"Metro de Madrid","network":"Metro de Madrid"}},{"type":"Feature","geometry":{"type":"Point","coordinates":[-3.7767659,40.3367045]},"properties":{"id":5305116634,"name":"San Nicasio","operator":"Metro de Madrid"}},{"type":"Feature","geometry":{"type":"Point","coordinates":[-3.7723562,40.3280922]},"properties":{"id":5305116635,"name":"Leganés Central","operator":"Metro de Madrid","network":"Metro de Madrid"}},{"type":"Feature","geometry":{"type":"Point","coordinates":[-3.7678287,40.3217764]},"properties":{"id":5305116636,"name":"Hospital Severo Ochoa","operator":"Metro de Madrid"}},{"type":"Feature","geometry":{"type":"Point","coordinates":[-3.7594548,40.3266736]},"properties":{"id":5305116637,"name":"Casa del Reloj","operator":"Metro de Madrid"}},{"type":"Feature","geometry":{"type":"Point","coordinates":[-3.7523849,40.3346216]},"properties":{"id":5305116638,"name":"Julián Besteiro","operator":"Metro de Madrid"}},{"type":"Feature","geometry":{"type":"Point","coordinates":[-3.729993,40.329394]},"properties":{"id":5305116640,"name":"El Bercial","operator":"Metro de Madrid"}},{"type":"Feature","geometry":{"type":"Point","coordinates":[-3.7183219,40.3241766]},"properties":{"id":5305116641,"name":"Los Espartales","operator":"Metro de Madrid"}},{"type":"Feature","geometry":{"type":"Point","coordinates":[-3.7224742,40.311798]},"properties":{"id":5305116644,"name":"Juan de la Cierva","operator":"Metro de Madrid"}},{"type":"Feature","geometry":{"type":"Point","coordinates":[-3.7340308,40.3099984]},"properties":{"id":5305116645,"name":"Getafe Central","operator":"Metro de Madrid","network":"Metro de Madrid"}},{"type":"Feature","geometry":{"type":"Point","coordinates":[-3.7370513,40.3001349]},"properties":{"id":5305116646,"name":"Alonso de Mendoza","operator":"Metro de Madrid"}},{"type":"Feature","geometry":{"type":"Point","coordinates":[-3.7457669,40.2932486]},"properties":{"id":5305116647,"name":"Conservatorio","operator":"Metro de Madrid"}},{"type":"Feature","geometry":{"type":"Point","coordinates":[-3.7567702,40.2886235]},"properties":{"id":5305116648,"name":"Arroyo Culebro","operator":"Metro de Madrid"}},{"type":"Feature","geometry":{"type":"Point","coordinates":[-3.7871681,40.2866605]},"properties":{"id":5305116649,"name":"Parque de los Estados","operator":"Metro de Madrid"}},{"type":"Feature","geometry":{"type":"Point","coordinates":[-3.7982754,40.2822879]},"properties":{"id":5305116650,"name":"Fuenlabrada Central","operator":"Metro de Madrid"}},{"type":"Feature","geometry":{"type":"Point","coordinates":[-3.8074481,40.2852204]},"properties":{"id":5305116651,"name":"Parque Europa","operator":"Metro de Madrid"}},{"type":"Feature","geometry":{"type":"Point","coordinates":[-3.815823,40.2858456]},"properties":{"id":5305116652,"name":"Hospital de Fuenlabrada","operator":"Metro de Madrid"}},{"type":"Feature","geometry":{"type":"Point","coordinates":[-3.8367671,40.296741]},"properties":{"id":5305116653,"name":"Loranca","operator":"Metro de Madrid"}},{"type":"Feature","geometry":{"type":"Point","coordinates":[-3.864774,40.3091106]},"properties":{"id":5305116654,"name":"Manuela Malasaña","operator":"Metro de Madrid"}},{"type":"Feature","geometry":{"type":"Point","coordinates":[-3.8744217,40.3163098]},"properties":{"id":5305116655,"name":"Hospital de Móstoles","operator":"Metro de Madrid"}},{"type":"Feature","geometry":{"type":"Point","coordinates":[-3.8648272,40.3217118]},"properties":{"id":5305116656,"name":"Pradillo","operator":"Metro de Madrid"}},{"type":"Feature","geometry":{"type":"Point","coordinates":[-3.8634972,40.3290012]},"properties":{"id":5305116657,"name":"Móstoles Central","operator":"Metro de Madrid","network":"Metrosur"}},{"type":"Feature","geometry":{"type":"Point","coordinates":[-3.8721732,40.3348569]},"properties":{"id":5305116658,"name":"Universidad Rey Juan Carlos","operator":"Metro de Madrid"}},{"type":"Feature","geometry":{"type":"Point","coordinates":[-3.7446368,40.3993048]},"properties":{"id":5305486974,"name":"Laguna","operator":"Metro de Madrid","network":"Metro de Madrid"}},{"type":"Feature","geometry":{"type":"Point","coordinates":[-3.7452693,40.4048009]},"properties":{"id":5305486975,"name":"Lucero","operator":"Metro de Madrid","network":"Metro de Madrid"}},{"type":"Feature","geometry":{"type":"Point","coordinates":[-3.7384073,40.4099947]},"properties":{"id":5305486976,"name":"Alto de Extremadura","operator":"Metro de Madrid","network":"Metro de Madrid"}},{"type":"Feature","geometry":{"type":"Point","coordinates":[-3.7271312,40.4138284]},"properties":{"id":5305486977,"name":"Puerta del Ángel","operator":"Metro de Madrid","network":"Metro de Madrid"}},{"type":"Feature","geometry":{"type":"Point","coordinates":[-3.7264206,40.4438005]},"properties":{"id":5305486979,"name":"Ciudad Universitaria","operator":"Metro de Madrid","network":"Metro de Madrid"}},{"type":"Feature","geometry":{"type":"Point","coordinates":[-3.7190437,40.446506]},"properties":{"id":5305486980,"name":"Vicente Aleixandre","operator":"Metro de Madrid","network":"Metro de Madrid"}},{"type":"Feature","geometry":{"type":"Point","coordinates":[-3.6846392,40.4443179]},"properties":{"id":5305486981,"name":"República Argentina","operator":"Metro de Madrid","network":"Metro de Madrid"}},{"type":"Feature","geometry":{"type":"Point","coordinates":[-3.6690629,40.422202]},"properties":{"id":5305486982,"name":"O'Donnell","operator":"Metro de Madrid","network":"Metro de Madrid"}},{"type":"Feature","geometry":{"type":"Point","coordinates":[-3.6696729,40.4143958]},"properties":{"id":5305486983,"name":"Sainz de Baranda","operator":"Metro de Madrid","network":"Metro de Madrid"}},{"type":"Feature","geometry":{"type":"Point","coordinates":[-3.6801095,40.395717]},"properties":{"id":5305486986,"name":"Méndez Álvaro","operator":"Metro de Madrid","network":"Metro de Madrid"}},{"type":"Feature","geometry":{"type":"Point","coordinates":[-3.6884132,40.3932319]},"properties":{"id":5305486987,"name":"Arganzuela-Planetario","operator":"Metro de Madrid","network":"Metro de Madrid"}},{"type":"Feature","geometry":{"type":"Point","coordinates":[-3.7056039,40.3880344]},"properties":{"id":5305486988,"name":"Usera","operator":"Metro de Madrid","network":"Metro de Madrid"}},{"type":"Feature","geometry":{"type":"Point","coordinates":[-3.7178747,40.3853557]},"properties":{"id":5305486989,"name":"Plaza Elíptica","operator":"Metro de Madrid","network":"Metro de Madrid"}},{"type":"Feature","geometry":{"type":"Point","coordinates":[-3.7231777,40.3869292]},"properties":{"id":5305486991,"name":"Opañel","operator":"Metro de Madrid","network":"Metro de Madrid"}},{"type":"Feature","geometry":{"type":"Point","coordinates":[-3.7409821,40.3929166]},"properties":{"id":5305486992,"name":"Carpetana","operator":"Metro de Madrid","network":"Metro de Madrid"}},{"type":"Feature","geometry":{"type":"Point","coordinates":[-3.7279849,40.3809981]},"properties":{"id":5305513281,"name":"Abrantes","operator":"Metro de Madrid","network":"Metro de Madrid"}},{"type":"Feature","geometry":{"type":"Point","coordinates":[-3.7341933,40.3761821]},"properties":{"id":5305513282,"name":"Pan Bendito","operator":"Metro de Madrid","network":"Metro de Madrid"}},{"type":"Feature","geometry":{"type":"Point","coordinates":[-3.7397923,40.3736594]},"properties":{"id":5305513283,"name":"San Francisco","operator":"Metro de Madrid","network":"Metro de Madrid"}},{"type":"Feature","geometry":{"type":"Point","coordinates":[-3.7517535,40.3718832]},"properties":{"id":5305513284,"name":"Carabanchel Alto","operator":"Metro de Madrid","network":"Metro de Madrid"}},{"type":"Feature","geometry":{"type":"Point","coordinates":[-3.7574077,40.3630249]},"properties":{"id":5305513285,"name":"La Peseta","operator":"Metro de Madrid","network":"Metro de Madrid"}},{"type":"Feature","geometry":{"type":"Point","coordinates":[-3.7776561,40.3581963]},"properties":{"id":5305513286,"name":"La Fortuna","operator":"Metro de Madrid","network":"Metro de Madrid"}},{"type":"Feature","geometry":{"type":"Point","coordinates":[-3.7259989,40.4906807]},"properties":{"id":5306531886,"name":"Arroyofresno","operator":"Metro de Madrid","network":"Metro de Madrid"}},{"type":"Feature","geometry":{"type":"Point","coordinates":[-3.6805854,40.4674764]},"properties":{"id":5307455072,"name":"Duque de Pastrana","operator":"Metro de Madrid","network":"Metro de Madrid"}},{"type":"Feature","geometry":{"type":"Point","coordinates":[-3.696293,40.4698213]},"properties":{"id":5307455075,"name":"Ventilla","operator":"Metro de Madrid","network":"Metro de Madrid"}},{"type":"Feature","geometry":{"type":"Point","coordinates":[-3.7035391,40.4770471]},"properties":{"id":5307455076,"name":"Barrio del Pilar","operator":"Metro de Madrid","network":"Metro de Madrid"}},{"type":"Feature","geometry":{"type":"Point","coordinates":[-3.7080099,40.4846027]},"properties":{"id":5307455077,"name":"Herrera Oria","operator":"Metro de Madrid","network":"Metro de Madrid"}},{"type":"Feature","geometry":{"type":"Point","coordinates":[-3.7165397,40.4910429]},"properties":{"id":5307455078,"name":"Mirasierra","operator":"Metro de Madrid","network":"Metro de Madrid"}},{"type":"Feature","geometry":{"type":"Point","coordinates":[-3.6352111,40.4005425]},"properties":{"id":5307477090,"name":"Pavones","operator":"Metro de Madrid","network":"Metro de Madrid"}},{"type":"Feature","geometry":{"type":"Point","coordinates":[-3.6418518,40.4052627]},"properties":{"id":5307477091,"name":"Artilleros","operator":"Metro de Madrid","network":"Metro de Madrid"}},{"type":"Feature","geometry":{"type":"Point","coordinates":[-3.6525288,40.4103313]},"properties":{"id":5307477092,"name":"Vinateros","operator":"Metro de Madrid","network":"Metro de Madrid"}},{"type":"Feature","geometry":{"type":"Point","coordinates":[-3.661347,40.4112849]},"properties":{"id":5307477093,"name":"Estrella","operator":"Metro de Madrid","network":"Metro de Madrid"}},{"type":"Feature","geometry":{"type":"Point","coordinates":[-3.6784632,40.4444834]},"properties":{"id":5307477094,"name":"Cruz del Rayo","operator":"Metro de Madrid","network":"Metro de Madrid"}},{"type":"Feature","geometry":{"type":"Point","coordinates":[-3.6781374,40.4183658]},"properties":{"id":5307477095,"name":"Ibiza","operator":"Metro de Madrid","network":"Metro de Madrid"}},{"type":"Feature","geometry":{"type":"Point","coordinates":[-3.6776079,40.4513295]},"properties":{"id":5307477096,"name":"Concha Espina","operator":"Metro de Madrid","network":"Metro de Madrid"}},{"type":"Feature","geometry":{"type":"Point","coordinates":[-3.6765305,40.4618018]},"properties":{"id":5307477097,"name":"Pío XII","operator":"Metro de Madrid","network":"Metro de Madrid"}},{"type":"Feature","geometry":{"type":"Point","coordinates":[-3.4777889,40.3190333]},"properties":{"id":5307497165,"name":"La Poveda","operator":"Metro de Madrid"}},{"type":"Feature","geometry":{"type":"Point","coordinates":[-3.5957286,40.4012423]},"properties":{"id":5307497168,"name":"Puerta de Arganda","operator":"Metro de Madrid","network":"Metro de Madrid"}},{"type":"Feature","geometry":{"type":"Point","coordinates":[-3.6035493,40.4039851]},"properties":{"id":5307497169,"name":"San Cipriano","operator":"Metro de Madrid","network":"Metro de Madrid"}},{"type":"Feature","geometry":{"type":"Point","coordinates":[-3.6088938,40.4042034]},"properties":{"id":5307497170,"name":"Vicálvaro","operator":"Metro de Madrid","network":"Metro de Madrid"}},{"type":"Feature","geometry":{"type":"Point","coordinates":[-3.621522,40.3999118]},"properties":{"id":5307497171,"name":"Valdebernardo","operator":"Metro de Madrid","network":"Metro de Madrid"}},{"type":"Feature","geometry":{"type":"Point","coordinates":[-3.7348806,40.4165076]},"properties":{"id":5310126818,"name":"Lago","operator":"Metro de Madrid","network":"Metro de Madrid"}},{"type":"Feature","geometry":{"type":"Point","coordinates":[-3.6907254,40.4523667]},"properties":{"id":5310126819,"name":"Santiago Bernabéu","operator":"Metro de Madrid","network":"Metro de Madrid"}},{"type":"Feature","geometry":{"type":"Point","coordinates":[-3.6900166,40.4594841]},"properties":{"id":5310126820,"name":"Cuzco","operator":"Metro de Madrid","network":"Metro de Madrid"}},{"type":"Feature","geometry":{"type":"Point","coordinates":[-3.6869037,40.4834526]},"properties":{"id":5310127221,"name":"Begoña","operator":"Metro de Madrid","network":"Metro de Madrid"}},{"type":"Feature","geometry":{"type":"Point","coordinates":[-3.6930692,40.4947348]},"properties":{"id":5310127222,"name":"Fuencarral","operator":"Metro de Madrid","network":"Metro de Madrid"}},{"type":"Feature","geometry":{"type":"Point","coordinates":[-3.6946891,40.500966]},"properties":{"id":5310127223,"name":"Tres Olivos","operator":"Metro de Madrid","network":"Metro de Madrid"}},{"type":"Feature","geometry":{"type":"Point","coordinates":[-3.6959917,40.5053359]},"properties":{"id":5310127224,"name":"Montecarmelo","operator":"Metro de Madrid","network":"Metro de Madrid"}},{"type":"Feature","geometry":{"type":"Point","coordinates":[-3.6694346,40.5083428]},"properties":{"id":5310127225,"name":"Las Tablas","operator":"Metro de Madrid","network":"Metro de Madrid"}},{"type":"Feature","geometry":{"type":"Point","coordinates":[-3.6623169,40.5151569]},"properties":{"id":5310127226,"name":"Ronda de la Comunicación","operator":"Metro de Madrid","network":"Metro de Madrid"}},{"type":"Feature","geometry":{"type":"Point","coordinates":[-3.6585237,40.5274337]},"properties":{"id":5310127227,"name":"La Granja","operator":"Metro de Madrid","network":"Metro de Madrid"}},{"type":"Feature","geometry":{"type":"Point","coordinates":[-3.6354938,40.5320326]},"properties":{"id":5310127228,"name":"La Moraleja","operator":"Metro de Madrid","network":"Metro de Madrid"}},{"type":"Feature","geometry":{"type":"Point","coordinates":[-3.6380507,40.5404555]},"properties":{"id":5310127229,"name":"Marqués de la Valdavia","operator":"Metro de Madrid","network":"Metro de Madrid"}},{"type":"Feature","geometry":{"type":"Point","coordinates":[-3.6469674,40.5502221]},"properties":{"id":5310127230,"name":"Manuel de Falla","operator":"Metro de Madrid","network":"Metro de Madrid"}},{"type":"Feature","geometry":{"type":"Point","coordinates":[-3.6350405,40.5543838]},"properties":{"id":5310127231,"name":"Baunatal","operator":"Metro de Madrid","network":"Metro de Madrid"}},{"type":"Feature","geometry":{"type":"Point","coordinates":[-3.6240552,40.5509075]},"properties":{"id":5310127232,"name":"Reyes Católicos","operator":"Metro de Madrid","network":"Metro de Madrid"}},{"type":"Feature","geometry":{"type":"Point","coordinates":[-3.6115488,40.5598448]},"properties":{"id":5310127233,"name":"Hospital Infanta Sofía","operator":"Metro de Madrid","network":"Metro de Madrid"}},{"type":"Feature","geometry":{"type":"Point","coordinates":[-3.8073186,40.3497655]},"properties":{"id":5310153776,"name":"Joaquín Vilumbrales","operator":"Metro de Madrid","network":"Metro de Madrid"}},{"type":"Feature","geometry":{"type":"Point","coordinates":[-3.7919717,40.3778953]},"properties":{"id":5310153777,"name":"Cuatro Vientos","operator":"Metro de Madrid","network":"Metro de Madrid"}},{"type":"Feature","geometry":{"type":"Point","coordinates":[-3.7840243,40.3837137]},"properties":{"id":5310153778,"name":"Aviación Española","operator":"Metro de Madrid","network":"Metro de Madrid"}},{"type":"Feature","geometry":{"type":"Point","coordinates":[-3.7747975,40.3968629]},"properties":{"id":5310153779,"name":"Colonia Jardín","operator":"Metro de Madrid","network":"Metro de Madrid"}},{"type":"Feature","geometry":{"type":"Point","coordinates":[-3.7531173,40.4078351]},"properties":{"id":5310153781,"name":"Batán","operator":"Metro de Madrid","network":"Metro de Madrid"}},{"type":"Feature","geometry":{"type":"Point","coordinates":[-3.6028437,40.4235572]},"properties":{"id":5330101189,"name":"Las Rosas","operator":"Metro de Madrid","network":"Metro de Madrid"}},{"type":"Feature","geometry":{"type":"Point","coordinates":[-3.7019295,40.4292705]},"properties":{"id":5423856839,"name":"Bilbao","operator":"Metro de Madrid","network":"Metro de Madrid"}},{"type":"Feature","geometry":{"type":"Point","coordinates":[-3.6811007,40.4042973]},"properties":{"id":5462590351,"name":"Menéndez Pelayo","operator":"Metro de Madrid","network":"Metro de Madrid"}},{"type":"Feature","geometry":{"type":"Point","coordinates":[-3.6748832,40.4013961]},"properties":{"id":6186804853,"name":"Pacífico","operator":"Metro de Madrid","network":"Metro de Madrid"}},{"type":"Feature","geometry":{"type":"Point","coordinates":[-3.6701194,40.4078121]},"properties":{"id":6187761909,"name":"Conde de Casal","operator":"Metro de Madrid","network":"Metro de Madrid"}},{"type":"Feature","geometry":{"type":"Point","coordinates":[-3.7405905,40.3364492]},"properties":{"id":6354922794,"name":"El Carrascal","operator":"Metro de Madrid"}},{"type":"Feature","geometry":{"type":"Point","coordinates":[-3.7255882,40.4953016]},"properties":{"id":6393976871,"name":"Pitis","operator":"Metro de Madrid","network":"Metro de Madrid"}},{"type":"Feature","geometry":{"type":"Point","coordinates":[-3.7607634,40.3856671]},"properties":{"id":12301152660,"name":"Aluche","operator":"Metro de Madrid","network":"Metro de Madrid"}},{"type":"Feature","geometry":{"type":"Point","coordinates":[-3.710227,40.3183926]},"properties":{"id":13247521654,"name":"El Casar","operator":"Metro de Madrid"}}]}